NORAD_CAT_ID,OBJECT_NAME,OBJECT_TYPE,EPOCH,MEAN_MOTION,ECCENTRICITY,INCLINATION,RA_OF_ASC_NODE,ARG_OF_PERICENTER,MEAN_ANOMALY,BSTAR,MEAN_MOTION_DOT,MEAN_MOTION_DDOT,TLE_LINE0,TLE_LINE1,TLE_LINE2,SEMIMAJOR_AXIS,PERIOD,APOGEE,PERIGEE,DECAYED
56494.0,STARLINK-5530,PAYLOAD,2024-02-21 13:58:32,14.98321864,0.0002818,70.0018,188.1531,262.6395,97.4444,2.2731e-05,1.78e-06,0.0,0 STARLINK-5530,1 56494U 23064AY  24052.58232099  .00000178  00000-0  22731-4 0  9999,2 56494  70.0018 188.1531 0002818 262.6395  97.4444 14.98321864 44326,6950.218,96.108,574.042,570.124,0.0
56494.0,STARLINK-5530,PAYLOAD,2024-02-21 18:46:57,14.9832039,0.0003081,70.0013,187.6481,270.6431,89.4375,-3.0549e-05,-4.57e-06,0.0,0 STARLINK-5530,1 56494U 23064AY  24052.78260469 -.00000457  00000-0 -30549-4 0  9991,2 56494  70.0013 187.6481 0003081 270.6431  89.4375 14.98320390 44352,6950.223,96.108,574.229,569.946,0.0
56494.0,STARLINK-5530,PAYLOAD,2024-02-22 12:24:24,14.98337443,0.0003199,70.001,185.796,271.8349,88.2443,-3.6437e-05,-5.28e-06,0.0,0 STARLINK-5530,1 56494U 23064AY  24053.51695410 -.00000528  00000-0 -36437-4 0  9992,2 56494  70.0010 185.7960 0003199 271.8349  88.2443 14.98337443 44823,6950.17,96.107,574.258,569.812,0.0
56494.0,STARLINK-5530,PAYLOAD,2024-02-22 14:00:32,14.98337953,0.0003162,70.0012,185.6276,271.9656,88.1141,-2.5075e-05,-3.92e-06,0.0,0 STARLINK-5530,1 56494U 23064AY  24053.58371328 -.00000392  00000-0 -25075-4 0  9993,2 56494  70.0012 185.6276 0003162 271.9656  88.1141 14.98337953 44477,6950.168,96.106,574.231,569.836,0.0
56494.0,STARLINK-5530,PAYLOAD,2024-02-22 18:48:56,14.98346514,0.0003165,70.0012,185.1228,271.8462,88.2335,9.7755e-06,2.4e-07,0.0,0 STARLINK-5530,1 56494U 23064AY  24053.78398546  .00000024  00000-0  97755-5 0  9991,2 56494  70.0012 185.1228 0003165 271.8462  88.2335 14.98346514 44868,6950.142,96.106,574.207,569.807,0.0
56494.0,STARLINK-5530,PAYLOAD,2024-02-23 12:26:26,14.98322256,0.0002695,70.0025,183.2744,265.9268,94.1583,0.00011827,1.318e-05,0.0,0 STARLINK-5530,1 56494U 23064AY  24054.51835658  .00001318  00000-0  11827-3 0  9994,2 56494  70.0025 183.2744 0002695 265.9268  94.1583 14.98322256 44979,6950.217,96.107,573.955,570.209,0.0
56494.0,STARLINK-5530,PAYLOAD,2024-02-23 14:02:34,14.98322145,0.0002672,70.0027,183.1057,261.7955,98.2901,0.00010934,1.212e-05,0.0,0 STARLINK-5530,1 56494U 23064AY  24054.58511704  .00001212  00000-0  10934-3 0  9995,2 56494  70.0027 183.1057 0002672 261.7955  98.2901 14.98322145 44627,6950.217,96.108,573.939,570.225,0.0
56494.0,STARLINK-5530,PAYLOAD,2024-02-23 18:50:57,14.98329554,0.0003165,70.0012,182.5984,272.306,87.7737,0.00010142,1.117e-05,0.0,0 STARLINK-5530,1 56494U 23064AY  24054.78539303  .00001117  00000-0  10142-3 0  9997,2 56494  70.0012 182.5984 0003165 272.3060  87.7737 14.98329554 44650,6950.194,96.107,574.259,569.86,0.0
56494.0,STARLINK-5530,PAYLOAD,2024-02-24 12:28:27,14.98326881,0.0002942,70.0028,180.7486,271.6556,88.4266,-8.2807e-05,-1.081e-05,0.0,0 STARLINK-5530,1 56494U 23064AY  24055.51976102 -.00001081  00000-0 -82807-4 0  9991,2 56494  70.0028 180.7486 0002942 271.6556  88.4266 14.98326881 45126,6950.203,96.107,574.112,570.023,0.0
56494.0,STARLINK-5530,PAYLOAD,2024-02-24 14:04:35,14.98326594,0.0002926,70.0022,180.5801,271.641,88.4414,-8.843e-05,-1.148e-05,0.0,0 STARLINK-5530,1 56494U 23064AY  24055.58652145 -.00001148  00000-0 -88430-4 0  9998,2 56494  70.0022 180.5801 0002926 271.6410  88.4414 14.98326594 44776,6950.203,96.107,574.102,570.035,0.0
56494.0,STARLINK-5530,PAYLOAD,2024-02-25 12:30:27,14.98330792,0.0002766,70.0024,178.2246,261.7542,98.3303,2.7743e-05,2.38e-06,0.0,0 STARLINK-5530,1 56494U 23064AY  24056.52115463  .00000238  00000-0  27743-4 0  9997,2 56494  70.0024 178.2246 0002766 261.7542  98.3303 14.98330792 45271,6950.19,96.107,573.978,570.133,0.0
56494.0,STARLINK-5530,PAYLOAD,2024-02-25 14:06:35,14.98333063,0.0002853,70.0021,178.0554,266.7776,93.3056,4.7124e-05,4.69e-06,0.0,0 STARLINK-5530,1 56494U 23064AY  24056.58791282  .00000469  00000-0  47124-4 0  9993,2 56494  70.0021 178.0554 0002853 266.7776  93.3056 14.98333063 44924,6950.183,96.107,574.031,570.066,0.0
56494.0,STARLINK-5530,PAYLOAD,2024-02-25 17:18:51,14.98335355,0.0002825,70.002,177.7187,268.2851,91.7985,7.3346e-05,7.82e-06,0.0,0 STARLINK-5530,1 56494U 23064AY  24056.72143044  .00000782  00000-0  73346-4 0  9999,2 56494  70.0020 177.7187 0002825 268.2851  91.7985 14.98335355 44942,6950.176,96.107,574.005,570.078,0.0
56494.0,STARLINK-5530,PAYLOAD,2024-02-26 01:19:31,14.98338351,0.0003248,70.0009,176.8764,271.9797,88.099,1.2105e-05,5.1e-07,0.0,0 STARLINK-5530,1 56494U 23064AY  24057.05522834  .00000051  00000-0  12105-4 0  9999,2 56494  70.0009 176.8764 0003248 271.9797  88.0990 14.98338351 45350,6950.167,96.106,574.289,569.775,0.0
56494.0,STARLINK-5530,PAYLOAD,2024-02-26 10:56:20,14.98330508,0.0002874,70.0017,175.8658,270.5284,89.5546,4.8293e-05,4.83e-06,0.0,0 STARLINK-5530,1 56494U 23064AY  24057.45579295  .00000483  00000-0  48293-4 0  9992,2 56494  70.0017 175.8658 0002874 270.5284  89.5546 14.98330508 45416,6950.191,96.107,574.054,570.059,0.0
56494.0,STARLINK-5530,PAYLOAD,2024-02-26 14:08:37,14.98320699,0.0002613,70.0022,175.5295,257.3962,102.6905,-5.6752e-05,-7.7e-06,0.0,0 STARLINK-5530,1 56494U 23064AY  24057.58932154 -.00000770  00000-0 -56752-4 0  9993,2 56494  70.0022 175.5295 0002613 257.3962 102.6905 14.98320699 45071,6950.222,96.108,573.903,570.271,0.0
56494.0,STARLINK-5530,PAYLOAD,2024-02-26 17:20:52,14.98335232,0.0002912,70.0023,175.1924,271.2775,88.8051,5.917e-05,6.13e-06,0.0,0 STARLINK-5530,1 56494U 23064AY  24057.72282938  .00000613  00000-0  59170-4 0  9998,2 56494  70.0023 175.1924 0002912 271.2775  88.8051 14.98335232 45094,6950.177,96.107,574.066,570.018,0.0
56494.0,STARLINK-5530,PAYLOAD,2024-02-27 10:58:22,14.98322774,0.0002916,70.003,173.3435,263.8576,96.2251,-0.00010822,-1.384e-05,0.0,0 STARLINK-5530,1 56494U 23064AY  24058.45720229 -.00001384  00000-0 -10822-3 0  9997,2 56494  70.0030 173.3435 0002916 263.8576  96.2251 14.98322774 45563,6950.215,96.107,574.107,570.054,0.0
56494.0,STARLINK-5530,PAYLOAD,2024-02-27 14:10:38,14.98327149,0.0003091,70.0014,173.0052,269.7816,90.2989,-0.00010666,-1.365e-05,0.0,0 STARLINK-5530,1 56494U 23064AY  24058.59072006 -.00001365  00000-0 -10666-3 0  9990,2 56494  70.0014 173.0052 0003091 269.7816  90.2989 14.98327149 45220,6950.202,96.107,574.215,569.918,0.0
56494.0,STARLINK-5530,PAYLOAD,2024-02-27 17:22:54,14.98325521,0.0003002,70.0023,172.6701,267.5995,92.4821,-8.3033e-05,-1.083e-05,0.0,0 STARLINK-5530,1 56494U 23064AY  24058.72424069 -.00001083  00000-0 -83033-4 0  9991,2 56494  70.0023 172.6701 0003002 267.5995  92.4821 14.98325521 45245,6950.207,96.107,574.158,569.985,0.0
56494.0,STARLINK-5530,PAYLOAD,2024-02-28 12:36:30,14.9832751,0.0003098,70.0016,170.649,272.164,87.9164,6.6289e-06,-1.4e-07,0.0,0 STARLINK-5530,1 56494U 23064AY  24059.52535790 -.00000014  00000-0  66289-5 0  9991,2 56494  70.0016 170.6490 0003098 272.1640  87.9164 14.98327510 45726,6950.201,96.107,574.219,569.912,0.0
56494.0,STARLINK-5530,PAYLOAD,2024-02-28 14:12:38,14.98329325,0.0002921,70.0019,170.4812,265.7514,94.3311,1.079e-05,3.6e-07,0.0,0 STARLINK-5530,1 56494U 23064AY  24059.59211652  .00000036  00000-0  10790-4 0  9994,2 56494  70.0019 170.4812 0002921 265.7514  94.3311 14.98329325 45370,6950.195,96.107,574.09,570.03,0.0
56494.0,STARLINK-5530,PAYLOAD,2024-02-28 17:24:54,14.98331907,0.0002998,70.0016,170.1444,268.0799,92.0016,4.2263e-05,4.11e-06,0.0,0 STARLINK-5530,1 56494U 23064AY  24059.72563401  .00000411  00000-0  42263-4 0  9998,2 56494  70.0016 170.1444 0002998 268.0799  92.0016 14.98331907 45398,6950.187,96.107,574.136,569.968,0.0
56494.0,STARLINK-5530,PAYLOAD,2024-02-29 14:14:39,14.98331191,0.0003064,70.0017,167.9566,270.0648,90.016,0.0001107,1.228e-05,0.0,0 STARLINK-5530,1 56494U 23064AY  24060.59351254  .00001228  00000-0  11070-3 0  9994,2 56494  70.0017 167.9566 0003064 270.0648  90.0160 14.98331191 45527,6950.189,96.107,574.184,569.925,0.0
56494.0,STARLINK-5530,PAYLOAD,2024-02-29 17:26:55,14.98332573,0.0003047,70.0018,167.6199,270.0997,89.9813,0.00012198,1.363e-05,0.0,0 STARLINK-5530,1 56494U 23064AY  24060.72703119  .00001363  00000-0  12198-3 0  9992,2 56494  70.0018 167.6199 0003047 270.0997  89.9813 14.98332573 45904,6950.185,96.107,574.168,569.932,0.0
56494.0,STARLINK-5530,PAYLOAD,2024-03-01 14:16:40,14.98330864,0.0002914,70.0022,165.4325,265.0793,95.0033,1.0516e-05,3.3e-07,0.0,0 STARLINK-5530,1 56494U 23064AY  24061.59491460  .00000033  00000-0  10516-4 0  9997,2 56494  70.0022 165.4325 0002914 265.0793  95.0033 14.98330864 45673,6950.19,96.107,574.081,570.03,0.0
56494.0,STARLINK-5530,PAYLOAD,2024-03-01 15:52:48,14.98330625,0.0002789,70.0022,165.2645,254.9003,105.1848,2.723e-05,2.32e-06,0.0,0 STARLINK-5530,1 56494U 23064AY  24061.66167379  .00000232  00000-0  27230-4 0  9996,2 56494  70.0022 165.2645 0002789 254.9003 105.1848 14.98330625 45680,6950.191,96.107,573.994,570.118,0.0
56494.0,STARLINK-5530,PAYLOAD,2024-03-02 14:18:41,14.9833541,0.0003007,70.0018,162.9074,267.0939,92.9876,4.3055e-06,-4.2e-07,0.0,0 STARLINK-5530,1 56494U 23064AY  24062.59630868 -.00000042  00000-0  43055-5 0  9991,2 56494  70.0018 162.9074 0003007 267.0939  92.9876 14.98335410 45829,6950.176,96.107,574.131,569.951,0.0
56494.0,STARLINK-5530,PAYLOAD,2024-03-02 15:54:49,14.9833654,0.000303,70.0019,162.739,267.6534,92.4278,1.0886e-05,3.7e-07,0.0,0 STARLINK-5530,1 56494U 23064AY  24062.66306738  .00000037  00000-0  10886-4 0  9993,2 56494  70.0019 162.7390 0003030 267.6534  92.4278 14.98336540 46199,6950.173,96.107,574.144,569.932,0.0
56494.0,STARLINK-5530,PAYLOAD,2024-03-03 11:08:26,14.98316624,0.0002937,70.0026,160.7214,256.5475,103.5357,0.00018494,2.114e-05,0.0,0 STARLINK-5530,1 56494U 23064AY  24063.46419474  .00002114  00000-0  18494-3 0  9994,2 56494  70.0026 160.7214 0002937 256.5475 103.5357 14.98316624 46313,6950.234,96.108,574.141,570.058,0.0
